GLOBALSTAR M094 [+]     
1 39074U 13005C   24052.73778593 -.00000109  00000+0 -29947-4 0  9990
2 39074  51.9935 207.9873 0000689  93.6301 266.4644 12.62263182511594
GLOBALSTAR M096 [+]     
1 39075U 13005D   24052.59270754 -.00000073  00000+0  17308-3 0  9997
2 39075  52.0050 256.5704 0000596  72.1830 287.9101 12.62272979510470
GLOBALSTAR M078 [+]     
1 39076U 13005E   24052.80417463 -.00000023  00000+0  44912-3 0  9998
2 39076  51.9902 341.0927 0000858 164.4126 195.6767 12.62262257509330
GLOBALSTAR M095 [+]     
1 39077U 13005F   24052.19663093 -.00000077  00000+0  15128-3 0  9999
2 39077  51.9828 340.3756 0000206 180.3999 179.6867 12.62263423508903
GLOBALSTAR M087 [+]     
1 52888U 22064A   24052.83975618 -.00000080  00000+0  92420-4 0  9994
2 52888  51.9735 254.0784 0010299  70.8010 289.4004 13.37565927 81958
